[{"OBJECT_NAME":"STARLINK-3532","OBJECT_ID":"2022-016P","EPOCH":"2026-03-09T23:24:04.221504","MEAN_MOTION":15.0883683,"ECCENTRICITY":0.00013734,"INCLINATION":53.2188,"RA_OF_ASC_NODE":327.8415,"ARG_OF_PERICENTER":83.1131,"MEAN_ANOMALY":277.0017,"EPHEMERIS_TYPE":0,"CLASSIFICATION_TYPE":"U","NORAD_CAT_ID":51727,"ELEMENT_SET_NO":999,"REV_AT_EPOCH":22346,"BSTAR":7.9535108e-5,"MEAN_MOTION_DOT":9.78e-6,"MEAN_MOTION_DDOT":0},{"OBJECT_NAME":"PEGASUS DEB","OBJECT_ID":"1994-029ADD","EPOCH":"2026-03-08T10:25:15.653280","MEAN_MOTION":14.68059496,"ECCENTRICITY":0.01955808,"INCLINATION":82.165,"RA_OF_ASC_NODE":108.7718,"ARG_OF_PERICENTER":24.3577,"MEAN_ANOMALY":336.6717,"EPHEMERIS_TYPE":0,"CLASSIFICATION_TYPE":"U","NORAD_CAT_ID":24996,"ELEMENT_SET_NO":999,"REV_AT_EPOCH":48270,"BSTAR":0.0033498842,"MEAN_MOTION_DOT":0.00025801,"MEAN_MOTION_DDOT":0}]
